ONEWEB-0055             
1 45443U 20020V   21358.52851501 -.00000317  00000+0 -93054-3 0  9996
2 45443  87.8894 346.2525 0001637  78.5875 281.5436 13.11414439 88242
ONEWEB-0093             
1 45444U 20020W   21358.50385896  .00000619  00000+0  17106-2 0  9990
2 45444  87.8885 346.2960 0001657  76.8272 283.3040 13.11415073 88291
ONEWEB-0029             
1 45445U 20020X   21358.67888354 -.00000189  00000+0 -57032-3 0  9993
2 45445  87.8886 346.2433 0002071  78.5706 281.5655 13.11414823 88306
ONEWEB-0068             
1 45446U 20020Y   21358.49601238  .00000529  00000+0  14562-2 0  9994
2 45446  87.8885 346.2956 0001673  70.3024 289.8284 13.11417779 88218
ONEWEB-0046             
1 45447U 20020Z   21358.72152300  .00000370  00000+0  10067-2 0  9992
2 45447  87.8887 346.2578 0001863  87.9423 272.1918 13.11418880 88267
ONEWEB-0063             
1 45448U 20020AA  21358.67439741  .00000048  00000+0  98611-4 0  9999
2 45448  87.8879 346.2629 0001939  93.2781 266.8569 13.11414983 88337
ONEWEB-0019             
1 45449U 20020AB  21358.72602340  .00000465  00000+0  12762-2 0  9997
2 45449  87.8888 346.2356 0001685  89.4420 270.6901 13.11417610 88197
ONEWEB-0094             
1 45450U 20020AC  21358.50119678  .00000098  00000+0  22030-3 0  9994
2 45450  87.9086 331.0364 0001608  80.6933 279.4380 13.17651541 90907
ONEWEB-0087             
1 45451U 20020AD  21358.53076844 -.00000346  00000+0 -10117-2 0  9995
2 45451  87.8891 346.3064 0002052  74.6880 285.4474 13.11416264 88212
ONEWEB-0082             
1 45452U 20020AE  21358.53300603 -.00000442  00000+0 -12817-2 0  9995
2 45452  87.8883 346.2533 0001783  66.2193 293.9122 13.11415374 88303
ONEWEB-0050             
1 45453U 20020AF  21358.56546982  .00001802  00000+0  16215-3 0  9997
2 45453  87.5421 295.8901 0028134 123.6619 236.7301 14.94739022 96143
ONEWEB-0034             
1 45454U 20020AG  21358.70357052 -.00000342  00000+0 -99938-3 0  9995
2 45454  87.8884 346.2426 0001911  79.8054 280.3289 13.11418419 88246
ONEWEB-0060             
1 45455U 20020AH  21358.71254507  .00000126  00000+0  31954-3 0  9990
2 45455  87.8888 346.2438 0001822  85.9246 274.2090 13.11417503 88207
ONEWEB-0086             
1 45456U 20020AJ  21358.73051088  .00000556  00000+0  15329-2 0  9996
2 45456  87.8885 346.2350 0001790  77.1648 282.9680 13.11415655 88253
ONEWEB-0088             
1 45457U 20020AK  21358.47692686 -.00000125  00000+0 -38755-3 0  9996
2 45457  87.8883 346.3064 0001965  84.6168 275.5184 13.11419202 88157
ONEWEB-0102             
1 47258U 20100A   21358.84698826 -.00000309  00000+0 -89400-3 0  9996
2 47258  87.8866 315.7729 0001596  71.5277 288.6025 13.12444269 50221
ONEWEB-0109             
1 47259U 20100B   21358.40111374  .00000223  00000+0  58399-3 0  9993
2 47259  87.8983 315.7510 0001527  78.3569 281.7731 13.12445157 49990
ONEWEB-0110             
1 47260U 20100C   21358.42421852  .00000421  00000+0  11355-2 0  9992
2 47260  87.8888 315.8056 0001443  67.8387 292.2894 13.12442674 50169
ONEWEB-0111             
1 47261U 20100D   21358.45424955 -.00000359  00000+0 -10342-2 0  9990
2 47261  87.8891 315.8278 0001613  73.4646 286.6660 13.12443842 50009
ONEWEB-0114             
1 47262U 20100E   21358.41036166  .00000480  00000+0  12994-2 0  9998
2 47262  87.8953 315.7131 0001283  89.7728 270.3547 13.12443907 49958
ONEWEB-0117             
1 47263U 20100F   21358.40343558  .00000285  00000+0  75716-3 0  9999
2 47263  87.8976 315.7591 0001554  74.7445 285.3855 13.12443438 49963
ONEWEB-0118             
1 47264U 20100G   21358.43345078  .00000144  00000+0  36452-3 0  9990
2 47264  87.8874 315.8026 0001853 107.0875 253.0457 13.12440441 50169
ONEWEB-0119             
1 47265U 20100H   21358.38494097 -.00000335  00000+0 -96657-3 0  9998
2 47265  87.8866 315.8717 0001560  75.7000 284.4301 13.12444440 50130
ONEWEB-0120             
1 47266U 20100J   21358.41497696  .00000511  00000+0  13860-2 0  9999
2 47266  87.8939 315.8293 0001412  81.2211 278.9078 13.12444178 50163
ONEWEB-0121             
1 47267U 20100K   21358.62750825  .00000049  00000+0  10179-3 0  9996
2 47267  87.8946 315.8469 0001758  72.1520 287.9800 13.12444765 50101
ONEWEB-0122             
1 47268U 20100L   21358.39186524 -.00000082  00000+0 -26345-3 0  9991
2 47268  87.8948 315.7652 0001585  76.3684 283.7621 13.12445976 49986
ONEWEB-0123             
1 47269U 20100M   21358.84467565 -.00000362  00000+0 -10421-2 0  9997
2 47269  87.8880 315.7578 0001633  81.4610 278.6703 13.12443408 50185
ONEWEB-0124             
1 47270U 20100N   21358.83081972 -.00000348  00000+0 -10020-2 0  9991
2 47270  87.8851 315.6788 0002038  69.5122 290.6225 13.12443673 50066
ONEWEB-0125             
1 47271U 20100P   21358.42884483  .00000260  00000+0  68625-3 0  9991
2 47271  87.8925 315.8761 0001398  87.3953 272.7335 13.12443395 50075
ONEWEB-0126             
1 47272U 20100Q   21358.37686095 -.00000400  00000+0 -11462-2 0  9999
2 47272  87.8881 315.8973 0001392  77.2183 282.9101 13.12444074 50135
ONEWEB-0127             
1 47273U 20100R   21358.41729070  .00000500  00000+0  13540-2 0  9994
2 47273  87.8858 315.7749 0001676  81.9256 278.2062 13.12442953 50169
ONEWEB-0128             
1 47274U 20100S   21358.43808289 -.00000033  00000+0 -12660-3 0  9993
2 47274  87.8879 315.7947 0001646  64.2243 295.9056 13.12443563 50189
ONEWEB-0129             
1 47275U 20100T   21358.80078352  .00000399  00000+0  10734-2 0  9997
2 47275  87.8976 315.6698 0001063 155.7555 204.3624 13.12443640 50164
ONEWEB-0130             
1 47276U 20100U   21358.82620642 -.00000220  00000+0 -64779-3 0  9999
2 47276  87.8915 315.7515 0001726  72.0349 288.0968 13.12441193 50133
ONEWEB-0131             
1 47277U 20100V   21358.44270496 -.00000180  00000+0 -53618-3 0  9991
2 47277  87.8912 315.7754 0001839  73.5797 286.5533 13.12442470 50123
ONEWEB-0132             
1 47278U 20100W   21358.39649173  .00000050  00000+0  10311-3 0  9995
2 47278  87.8873 315.8765 0001416  84.7271 275.4019 13.12444814 50013
ONEWEB-0133             
1 47279U 20100X   21358.79385309  .00000375  00000+0  10065-2 0  9993
2 47279  87.8898 315.7020 0001592  78.9940 281.1368 13.12441914 50229
ONEWEB-0134             
1 47280U 20100Y   21358.38032730 -.00000368  00000+0 -10576-2 0  9998
2 47280  87.8866 315.7981 0001621  67.4101 292.7199 13.12444682 50143
ONEWEB-0135             
1 47281U 20100Z   21358.42654268  .00000355  00000+0  95031-3 0  9994
2 47281  87.8871 315.7797 0001496  78.2596 281.8700 13.12441733 50177
ONEWEB-0136             
1 47282U 20100AA  21358.82850892 -.00000313  00000+0 -90499-3 0  9999
2 47282  87.8962 315.6792 0001044  45.5697 314.5517 13.12442211 50151
ONEWEB-0137             
1 47283U 20100AB  21358.40804164  .00000367  00000+0  98442-3 0  9998
2 47283  87.8854 315.8452 0001518  89.3771 270.7531 13.12444373 50006
ONEWEB-0138             
1 47284U 20100AC  21358.84005326 -.00000446  00000+0 -12760-2 0  9998
2 47284  87.8858 315.7497 0001400  75.9447 284.1837 13.12443576 50147
ONEWEB-0139             
1 47285U 20100AD  21358.43114179  .00000253  00000+0  66799-3 0  9997
2 47285  87.8911 315.8925 0001436  68.3561 291.7721 13.12441297 50163
ONEWEB-0140             
1 47286U 20100AE  21358.83312953 -.00000372  00000+0 -10703-2 0  9999
2 47286  87.8890 315.7624 0001512  72.1302 287.9992 13.12445616 50173
ONEWEB-0141             
1 47287U 20100AF  21358.82504746 -.00000215  00000+0 -63305-3 0  9995
2 47287  87.8864 315.7465 0001599  75.6174 284.5132 13.12440217 50168
ONEWEB-0142             
1 47288U 20100AG  21358.38840326 -.00000176  00000+0 -52432-3 0  9999
2 47288  87.8876 315.9261 0001329  86.8757 273.2524 13.12444541 50108
ONEWEB-0143             
1 47289U 20100AH  21358.42192549  .00000572  00000+0  15550-2 0  9999
2 47289  87.8911 315.8063 0001661  77.6457 282.4857 13.12442566 50085
ONEWEB-0144             
1 47290U 20100AJ  21358.85160800 -.00000173  00000+0 -51581-3 0  9997
2 47290  87.8955 315.6531 0001612  70.2869 289.8433 13.12442091 50067
ONEWEB-0145             
1 47291U 20100AK  21358.44038708 -.00000109  00000+0 -33723-3 0  9991
2 47291  87.8887 315.8183 0001579  80.7116 279.4191 13.12442175 50205
ONEWEB-0146             
1 47292U 20100AL  21358.43578017  .00000090  00000+0  21596-3 0  9995
2 47292  87.8872 315.8417 0002684  71.8445 288.2976 13.12442330 50116
ONEWEB-0147             
1 47293U 20100AM  21358.40576628  .00000591  00000+0  16080-2 0  9996
2 47293  87.8889 315.8484 0000954  61.3070 298.8154 13.12446517 50009
ONEWEB-0115             
1 48042U 21025A   21358.49062874  .00000362  00000+0  95659-3 0  9994
2 48042  87.8910 285.1801 0001852  63.0225 297.1093 13.13470631 38878
ONEWEB-0152             
1 48043U 21025B   21358.80653462  .00000112  00000+0  27245-3 0  9998
2 48043  87.8964 285.1134 0001590  63.6800 296.4492 13.13471101 38880
ONEWEB-0153             
1 48044U 21025C   21358.32706781  .00000509  00000+0  13588-2 0  9993
2 48044  87.8894 285.3864 0001638  78.5902 281.5411 13.13470137 38802
ONEWEB-0154             
1 48045U 21025D   21358.78189734  .00000938  00000+0  25332-2 0  9993
2 48045  87.8989 285.1418 0001227  80.4207 279.7061 13.13471722 38839
ONEWEB-0116             
1 48046U 21025E   21358.82445451 -.00000338  00000+0 -95964-3 0  9995
2 48046  87.8986 285.1267 0002056  72.0307 288.1046 13.13468189 38973
ONEWEB-0150             
1 48047U 21025F   21358.49287099  .00000286  00000+0  74900-3 0  9998
2 48047  87.8869 285.1797 0001475  84.2755 275.8542 13.13469921 38821
ONEWEB-0107             
1 48048U 21025G   21358.49511407  .00000279  00000+0  73042-3 0  9990
2 48048  87.8897 285.1710 0001167  88.4957 271.6306 13.13469560 38816
ONEWEB-0101             
1 48049U 21025H   21358.84013824 -.00000158  00000+0 -46831-3 0  9994
2 48049  87.8887 285.1613 0001361  69.4583 290.6692 13.13472444 38823
